TRANSPORTER-17 OBJECT BG
1 69923U 26156BG  26205.17560282  .00001295  00000+0  13321-3 0  9994
2 69923  97.7511 105.3564 0009294  96.2018 264.0260 14.91990551  2517
TRANSPORTER-17 OBJECT BH
1 69924U 26156BH  26204.97286490  .00000799  00000+0  83993-4 0  9999
2 69924  97.7519 105.1625 0009891  96.5451 263.6895 14.92123177  2487
TRANSPORTER-17 OBJECT BJ
1 69925U 26156BJ  26205.24070624  .00005641  00000+0  55832-3 0  9992
2 69925  97.7506 105.4250 0010149  94.4455 265.7924 14.92213365  2520
TRANSPORTER-17 OBJECT BK
1 69926U 26156BK  26205.30712596  .00004128  00000+0  40981-3 0  9999
2 69926  97.7575 105.5061 0009869 103.5309 256.7010 14.92247135  2534
TRANSPORTER-17 OBJECT BL
1 69927U 26156BL  26205.17310401  .00000937  00000+0  97358-4 0  9999
2 69927  97.7534 105.3646 0009906 101.7065 258.5266 14.92208148  2341
TRANSPORTER-17 OBJECT BM
1 69928U 26156BM  26205.30683761  .00004257  00000+0  42209-3 0  9990
2 69928  97.7569 105.5039 0010286 100.3445 259.8934 14.92276319  2530
TRANSPORTER-17 OBJECT BN
1 69929U 26156BN  26205.17179101  .00003049  00000+0  30332-3 0  9996
2 69929  97.7543 105.3683 0010607  99.3792 260.8627 14.92354832  2511
TRANSPORTER-17 OBJECT BP
1 69930U 26156BP  26205.30557350  .00004336  00000+0  42860-3 0  9998
2 69930  97.7560 105.5046 0010599 102.6241 257.6164 14.92387666  2537
TRANSPORTER-17 OBJECT BQ
1 69931U 26156BQ  26205.23858240  .00000887  00000+0  92160-4 0  9999
2 69931  97.7515 105.4292 0010890  95.7814 264.4647 14.92347526  2524
TRANSPORTER-17 OBJECT BR
1 69932U 26156BR  26205.23851427  .00000607  00000+0  64758-4 0  9992
2 69932  97.7467 105.4194 0011143  93.6770 266.5723 14.92351849  2523
TRANSPORTER-17 OBJECT BS
1 69933U 26156BS  26205.30505355  .00004138  00000+0  40883-3 0  9992
2 69933  97.7546 105.5021 0011009  98.2193 262.0275 14.92430820  2534
TRANSPORTER-17 OBJECT BT
1 69934U 26156BT  26205.30476959  .00004019  00000+0  39693-3 0  9995
2 69934  97.7537 105.5009 0011023 100.8557 259.3903 14.92456797  2539
KOSTKA                  
1 69935U 26156BU  26205.17003134  .00002642  00000+0  26259-3 0  9996
2 69935  97.7477 105.3573 0011540  96.4355 263.8178 14.92500732  2518
TRANSPORTER-17 OBJECT BV
1 69936U 26156BV  26205.23716270  .00001506  00000+0  15210-3 0  9999
2 69936  97.7477 105.4229 0011550  96.2675 263.9860 14.92480849  2528
LEONAV-1                
1 69937U 26156BW  26205.30153777  .00002563  00000+0  25337-3 0  9990
2 69937  97.7509 105.4997 0012462  95.6946 264.5695 14.92728788  2535
TRANSPORTER-17 OBJECT BX
1 69938U 26156BX  26205.16993195  .00000859  00000+0  89034-4 0  9992
2 69938  97.7492 105.3615 0011694  93.5350 266.7207 14.92501654  2517
TRANSPORTER-17 OBJECT BY
1 69939U 26156BY  26204.96857172  .00001004  00000+0  10317-3 0  9994
2 69939  97.7570 105.1780 0011239 104.8717 255.3748 14.92511578  2480
TRANSPORTER-17 OBJECT BZ
1 69940U 26156BZ  26205.30274194  .00000636  00000+0  67247-4 0  9997
2 69940  97.7553 105.5057 0011969  98.5194 261.7382 14.92600746  2539
TRANSPORTER-17 OBJECT CA
1 69941U 26156CA  26205.17381057  .00005281  00000+0  52347-3 0  9995
2 69941  97.7504 105.3587 0010061  94.6358 265.6011 14.92186945  2513
TRANSPORTER-17 OBJECT CB
1 69942U 26156CB  26205.30806524  .00005109  00000+0  50684-3 0  9993
2 69942  97.7504 105.4907 0009954  94.2860 265.9497 14.92165017  2534
STARLINK-37886          
1 69943U 26157A   26205.28159053  .00329500  00000+0  16085-2 0  9990
2 69943  53.1589 250.2936 0001084  50.5564 309.5555 15.80893733  2370
STARLINK-37937          
1 69944U 26157B   26205.27999538  .00345760  00000+0  16840-2 0  9995
2 69944  53.1585 250.2821 0001104  55.5961 304.5166 15.80899818  2372
STARLINK-37903          
1 69945U 26157C   26205.27920008  .00523330  00000+0  24535-2 0  9993
2 69945  53.1589 250.2772 0001526 169.8020 190.3034 15.81261467  2374
STARLINK-37905          
1 69946U 26157D   26205.27581478  .00296678  00000+0  14540-2 0  9995
2 69946  53.1586 250.2548 0001344  40.5365 319.5758 15.80897171  2372
STARLINK-37904          
1 69947U 26157E   26204.76937415  .00166451  00000+0  82833-3 0  9991
2 69947  53.1587 252.7839 0000972  46.8121 313.2983 15.80935268  2291
STARLINK-37891          
1 69948U 26157F   26205.27438186  .00328585  00000+0  15966-2 0  9990
2 69948  53.1588 250.2480 0001026 145.8759 214.2329 15.80997165  2373
STARLINK-37923          
1 69949U 26157G   26205.27136576  .00364849  00000+0  17657-2 0  9991
2 69949  53.1586 250.2237 0000495  87.6169 272.4911 15.80986709  2374
STARLINK-37895          
1 69950U 26157H   26204.76431533  .00338538  00000+0  16425-2 0  9995
2 69950  53.1585 252.7492 0002402  51.5506 308.5732 15.81003397  2297
STARLINK-37841          
1 69951U 26157J   26205.14161646  .00421280  00000+0  20213-2 0  9991
2 69951  53.1580 250.8343 0002110 127.8810 232.2404 15.81026006  2356
