OBJECT_NAME,OBJECT_ID,EPOCH,MEAN_MOTION,ECCENTRICITY,INCLINATION,RA_OF_ASC_NODE,ARG_OF_PERICENTER,MEAN_ANOMALY,EPHEMERIS_TYPE,CLASSIFICATION_TYPE,NORAD_CAT_ID,ELEMENT_SET_NO,REV_AT_EPOCH,BSTAR,MEAN_MOTION_DOT,MEAN_MOTION_DDOT
TRANSPORTER-17 OBJECT BG,2026-156BG,2026-07-24T04:12:52.083648,14.91990551,.0009294,97.7511,105.3564,96.2018,264.0260,0,U,69923,999,251,.13321275E-3,.1295E-4,0
TRANSPORTER-17 OBJECT BH,2026-156BH,2026-07-23T23:20:55.527360,14.92123177,.00098911,97.7519,105.1625,96.5451,263.6895,0,U,69924,999,248,.83993143E-4,.799E-5,0
TRANSPORTER-17 OBJECT BJ,2026-156BJ,2026-07-24T05:46:37.019136,14.92213365,.00101494,97.7506,105.4250,94.4455,265.7924,0,U,69925,999,252,.55832403E-3,.5641E-4,0
TRANSPORTER-17 OBJECT BK,2026-156BK,2026-07-24T07:22:15.682944,14.92247135,.00098698,97.7575,105.5061,103.5309,256.7010,0,U,69926,999,253,.40980985E-3,.4128E-4,0
TRANSPORTER-17 OBJECT BL,2026-156BL,2026-07-24T04:09:16.186464,14.92208148,.00099065,97.7534,105.3646,101.7065,258.5266,0,U,69927,999,234,.97358092E-4,.937E-5,0
TRANSPORTER-17 OBJECT BM,2026-156BM,2026-07-24T07:21:50.769504,14.92276319,.00102862,97.7569,105.5039,100.3445,259.8934,0,U,69928,999,253,.42209281E-3,.4257E-4,0
TRANSPORTER-17 OBJECT BN,2026-156BN,2026-07-24T04:07:22.743264,14.92354832,.00106079,97.7543,105.3683,99.3792,260.8627,0,U,69929,999,251,.30331601E-3,.3049E-4,0
TRANSPORTER-17 OBJECT BP,2026-156BP,2026-07-24T07:20:01.550400,14.92387666,.00105995,97.7560,105.5046,102.6241,257.6164,0,U,69930,999,253,.42859537E-3,.4336E-4,0
TRANSPORTER-17 OBJECT BQ,2026-156BQ,2026-07-24T05:43:33.519360,14.92347526,.00108901,97.7515,105.4292,95.7814,264.4647,0,U,69931,999,252,.92160116E-4,.887E-5,0
TRANSPORTER-17 OBJECT BR,2026-156BR,2026-07-24T05:43:27.632928,14.92351849,.00111431,97.7467,105.4194,93.6770,266.5723,0,U,69932,999,252,.64758033E-4,.607E-5,0
TRANSPORTER-17 OBJECT BS,2026-156BS,2026-07-24T07:19:16.626720,14.92430820,.00110094,97.7546,105.5021,98.2193,262.0275,0,U,69933,999,253,.40883486E-3,.4138E-4,0
TRANSPORTER-17 OBJECT BT,2026-156BT,2026-07-24T07:18:52.092576,14.92456797,.00110231,97.7537,105.5009,100.8557,259.3903,0,U,69934,999,253,.39692517E-3,.4019E-4,0
KOSTKA,2026-156BU,2026-07-24T04:04:50.707776,14.92500732,.00115409,97.7477,105.3573,96.4355,263.8178,0,U,69935,999,251,.26259239E-3,.2642E-4,0
TRANSPORTER-17 OBJECT BV,2026-156BV,2026-07-24T05:41:30.857280,14.92480849,.001155,97.7477,105.4229,96.2675,263.9860,0,U,69936,999,252,.15210401E-3,.1506E-4,0
LEONAV-1,2026-156BW,2026-07-24T07:14:12.863328,14.92728788,.00124628,97.7509,105.4997,95.6946,264.5695,0,U,69937,999,253,.25337447E-3,.2563E-4,0
TRANSPORTER-17 OBJECT BX,2026-156BX,2026-07-24T04:04:42.120480,14.92501654,.0011694,97.7492,105.3615,93.5350,266.7207,0,U,69938,999,251,.89033624E-4,.859E-5,0
TRANSPORTER-17 OBJECT BY,2026-156BY,2026-07-23T23:14:44.596608,14.92511578,.0011239,97.7570,105.1780,104.8717,255.3748,0,U,69939,999,248,.10316615E-3,.1004E-4,0
TRANSPORTER-17 OBJECT BZ,2026-156BZ,2026-07-24T07:15:56.903616,14.92600746,.00119692,97.7553,105.5057,98.5194,261.7382,0,U,69940,999,253,.67246504E-4,.636E-5,0
TRANSPORTER-17 OBJECT CA,2026-156CA,2026-07-24T04:10:17.233248,14.92186945,.00100615,97.7504,105.3587,94.6358,265.6011,0,U,69941,999,251,.52346624E-3,.5281E-4,0
TRANSPORTER-17 OBJECT CB,2026-156CB,2026-07-24T07:23:36.836736,14.92165017,.00099546,97.7504,105.4907,94.2860,265.9497,0,U,69942,999,253,.50684443E-3,.5109E-4,0
STARLINK-37886,2026-157A,2026-07-24T06:45:29.421792,15.80893733,.0001084,53.1589,250.2936,50.5564,309.5555,0,U,69943,999,237,.16085022E-2,.3295E-2,0
STARLINK-37937,2026-157B,2026-07-24T06:43:11.600832,15.80899818,.00011043,53.1585,250.2821,55.5961,304.5166,0,U,69944,999,237,.16840213E-2,.34576E-2,0
STARLINK-37903,2026-157C,2026-07-24T06:42:02.886912,15.81261467,.00015268,53.1589,250.2772,169.8020,190.3034,0,U,69945,999,237,.24534571E-2,.52333E-2,0
STARLINK-37905,2026-157D,2026-07-24T06:37:10.396992,15.80897171,.00013449,53.1586,250.2548,40.5365,319.5758,0,U,69946,999,237,.14539799E-2,.296678E-2,0
STARLINK-37904,2026-157E,2026-07-23T18:27:53.926560,15.80935268,.00009721,53.1587,252.7839,46.8121,313.2983,0,U,69947,999,229,.82832736E-3,.166451E-2,0
STARLINK-37891,2026-157F,2026-07-24T06:35:06.592704,15.80997165,.00010261,53.1588,250.2480,145.8759,214.2329,0,U,69948,999,237,.15966037E-2,.328585E-2,0
STARLINK-37923,2026-157G,2026-07-24T06:30:46.001664,15.80986709,.00004958,53.1586,250.2237,87.6169,272.4911,0,U,69949,999,237,.17656757E-2,.364849E-2,0
STARLINK-37895,2026-157H,2026-07-23T18:20:36.844512,15.81003397,.00024023,53.1585,252.7492,51.5506,308.5732,0,U,69950,999,229,.16424838E-2,.338538E-2,0
STARLINK-37841,2026-157J,2026-07-24T03:23:55.662144,15.81026006,.00021106,53.1580,250.8343,127.8810,232.2404,0,U,69951,999,235,.20213213E-2,.42128E-2,0
